TIGRISAT                
1 40043U 14033AK  24224.94909460  .00010474  00000+0  13724-2 0  9991
2 40043  97.7017  25.2999 0055940 121.3692 239.3011 14.79418631545701
AEROCUBE 6A             
1 40045U 14033AM  24224.89194499  .00020862  00000+0  24215-2 0  9994
2 40045  97.6743  36.2114 0050617  98.7286 261.9667 14.84477232546056
AEROCUBE 6B             
1 40046U 14033AN  24224.96187546  .00021864  00000+0  24845-2 0  9990
2 40046  97.6712  35.0339 0049246  93.7256 266.9592 14.85383933546504
CANX-4                  
1 40055U 14034C   24225.17174243  .00004553  00000+0  63249-3 0  9993
2 40055  98.3921  62.2529 0013688  17.6471 342.5211 14.78345669544853
CANX-5                  
1 40056U 14034D   24225.10887026  .00005540  00000+0  76766-3 0  9992
2 40056  98.3923  62.1936 0013714  18.0150 342.1543 14.78357001544842
UKUBE-1                 
1 40074U 14037F   24224.77833231  .00022750  00000+0  20811-2 0  9997
2 40074  98.3418 158.1606 0002091 221.1002 139.0060 14.94990903547088
BRITE-PL2 (HEWELIUSZ)   
1 40119U 14049B   24225.19246694  .00007029  00000+0  74523-3 0  9990
2 40119  97.8842 324.6273 0015779 175.9829 184.1517 14.89313593541005
AEROCUBE 5C             
1 40965U 15058B   24225.09920973  .00014600  00000+0  12887-2 0  9995
2 40965  64.7691 189.9221 0192390 291.2627  66.8032 14.83421488265320
AEROCUBE 7              
1 40966U 15058C   24225.17528693  .00016140  00000+0  13697-2 0  9999
2 40966  64.7668 182.9204 0187021 290.8550  67.2620 14.85464236265445
FOX-1A (AO-85)          
1 40967U 15058D   24224.37314653  .00012463  00000+0  11252-2 0  9999
2 40967  64.7768 206.2230 0191548 287.3179  70.7055 14.82788546 13175
SINOD-D 1               
1 40968U 15058E   24224.67242348  .00018111  00000+0  15619-2 0  9991
2 40968  64.7768 197.5262 0185874 286.1941  71.8784 14.84964829 16055
SNAP-3 ALICE            
1 40970U 15058G   24224.94175489  .00038977  00000+0  25421-2 0  9999
2 40970  64.7699 150.5368 0154055 283.8095  74.5919 14.98374106 14133
LMRST-SAT               
1 40971U 15058H   24225.22700033  .00012891  00000+0  11598-2 0  9998
2 40971  64.7756 199.1399 0192682 288.4403  69.5844 14.82754954 13308
SNAP-3 EDDIE            
1 40972U 15058J   24224.93857798  .00040441  00000+0  26041-2 0  9998
2 40972  64.7679 143.8473 0154377 284.7197  73.6853 14.98770789 16232
PROPCUBE 3              
1 40973U 15058K   24225.18267700  .00014823  00000+0  12784-2 0  9999
2 40973  64.7705 186.5665 0189028 289.7740  68.3072 14.84672956 14346
BISONSAT                
1 40974U 15058L   24224.94635896  .00030047  00000+0  21979-2 0  9990
2 40974  64.7674 159.5980 0168908 287.3779  70.8924 14.92716351 14084
SNAP-3 JIMI             
1 40975U 15058M   24225.21474548  .00018526  00000+0  14913-2 0  9995
2 40975  64.7688 173.6511 0180465 288.7056  69.4543 14.88107260 13361
PROPCUBE 1 (FLORA)      
1 40976U 15058N   24224.92726126  .00013070  00000+0  12214-2 0  9996
2 40976  64.7747 215.7907 0190982 289.7987  68.2618 14.81563077 16058
SINOD-D 3               
1 40977U 15058P   24225.10959889  .00017986  00000+0  16084-2 0  9991
2 40977  64.7739 207.9922 0185246 288.9208  69.1900 14.83719865 14326
HORYU-4                 
1 41340U 16012D   24224.99159980  .00035069  00000+0  16558-2 0  9995
2 41340  31.0034 331.4581 0009307 174.1428 185.9323 15.18235596466637
RAVAN                   
1 41849U 16067B   24225.06150602  .00028019  00000+0  14728-2 0  9994
2 41849  98.0673  46.0983 0012591 194.7915 165.2949 15.15578193424444
CELTEE 1                
1 41850U 16067C   24225.20647435  .00014973  00000+0  98974-3 0  9997
2 41850  98.1082  37.6327 0001566  57.1855 302.9522 15.07494463423864
OPTICUBE 04             
1 41851U 16067D   24224.94316306  .00010708  00000+0  79167-3 0  9993
2 41851  98.0829  32.2477 0017377 227.1939 132.7825 15.03276473423612
AEROCUBE 8D             
1 41852U 16067E   24224.94890174  .00020441  00000+0  12989-2 0  9997
2 41852  98.1123  37.2641 0003954 282.5052  77.5733 15.08871775423802
AEROCUBE 8C             
1 41853U 16067F   24224.89781622  .00021229  00000+0  13496-2 0  9998
2 41853  98.0935  35.6510 0007396 207.2169 152.8672 15.08830241423786
PROMETHEUS 2-1          
1 41854U 16067G   24225.05675503  .00046295  00000+0  21758-2 0  9998
2 41854  98.1021  44.1395 0011844 224.0397 135.9893 15.19380977424217
PROMETHEUS 2-3          
1 41855U 16067H   24225.05437389  .00045016  00000+0  21200-2 0  9999
2 41855  98.0955  43.5710 0009992 233.9648 126.0660 15.19335582424211
AALTO-1                 
1 42775U 17036L   24224.82860086  .00515718  00000+0  17442-2 0  9990
2 42775  97.0934 255.8158 0002298 189.6748 170.4481 15.88735397397872
CORVUS BC2              
1 42846U 17042X   24224.89897870  .00011729  00000+0  98865-3 0  9996
2 42846  97.3751  46.9213 0007638 226.8511 133.2074 14.98303460385781
CORVUS BC1              
1 42847U 17042Y   24225.05463593  .00012762  00000+0  10708-2 0  9994
2 42847  97.3748  47.4769 0006934 216.5625 143.5126 14.98463841385827
MIRATA                  
1 43015U 17073C   24225.10596863  .00056404  00000+0  24584-2 0  9997
2 43015  97.5864 109.2808 0163442  69.8851 291.9881 15.10687457364767
MAKERSAT 0              
1 43016U 17073D   24224.89601506  .00033429  00000+0  18122-2 0  9997
2 43016  97.5747 102.3669 0192409  94.1272 268.1967 14.99963879364256
GOMX-4B                 
1 43196U 18015E   24224.74849465  .00186607  00000+0  12929-2 0  9991
2 43196  97.6056  43.0078 0004635 114.3670 245.8078 15.73918600364232
GOMX-4A                 
1 43197U 18015F   24225.15018017  .01076129  67302-3  13565-2 0  9996
2 43197  97.5826  50.1793 0002306 262.6940  97.4080 16.07711229364757
SIRION PATHFINDER-2     
1 43759U 18099B   24224.87885641  .00015925  00000+0  11660-2 0  9993
2 43759  97.5255 279.4718 0013222  99.0717 261.2006 15.03576128310878
CORVUS BC4              
1 43767U 18099K   24224.87206955  .00014071  00000+0  10522-2 0  9994
2 43767  97.5098 276.5067 0012053 145.3908 214.8104 15.02817172310751
MOVE-II                 
1 43780U 18099Y   24225.15357867  .00051068  00000+0  24413-2 0  9991
2 43780  97.5166 287.7165 0007498 141.2199 218.9574 15.18798505311414
SPACEBEE-7              
1 43816U 18099BL  24224.90753194  .00040807  00000+0  22596-2 0  9995
2 43816  97.5444 287.9898 0010868  98.9465 261.2996 15.13650006310839
SPACEBEE-6              
1 43818U 18099BN  24224.64115418  .00091348  00000+0  32794-2 0  9996
2 43818  97.5358 294.1216 0007874 101.7630 258.4493 15.28277778311365
SHIELDS 1               
1 43850U 18104B   24225.11759501  .00029755  00000+0  75004-3 0  9994
2 43850  85.0198 245.0895 0009442 205.3013 154.7777 15.39689265314762
SONATE                  
1 44400U 19038Q   24224.92026030  .00053041  00000+0  14493-2 0  9994
2 44400  97.7144 221.6229 0012286 262.9287  97.0560 15.37143248282631
LUCKY-7                 
1 44406U 19038W   24224.74037933  .00102181  00000+0  17994-2 0  9993
2 44406  97.7026 226.4489 0009496 230.6172 129.4238 15.50029266282956
DUCHIFAT-3              
1 44854U 19089C   24224.92359413  .00039555  00000+0  18608-2 0  9993
2 44854  36.9564  70.0803 0005314 227.7244 132.3053 15.18659037256677
M2 PATHFINDER           
1 45727U 20037E   24224.91683694  .00011033  00000+0  94488-3 0  9990
2 45727  97.7818  41.0838 0009597 302.7103  57.3193 14.97704043224282
NETSAT-4                
1 46504U 20068U   24224.84947141  .00024201  00000+0  12373-2 0  9993
2 46504  97.8088 183.5594 0010662 159.4393 200.7270 15.16607427212603
NETSAT-3                
1 46505U 20068V   24224.12996840  .00019303  00000+0  10073-2 0  9997
2 46505  97.8062 182.2545 0009603 167.7657 192.3809 15.15944223212483
NETSAT-1                
1 46506U 20068W   24224.37628699  .00017557  00000+0  96642-3 0  9995
2 46506  97.8081 181.8440 0008068 177.3293 182.7983 15.14079904212470
NETSAT-2                
1 46507U 20068X   24224.60491719  .00022134  00000+0  11346-2 0  9997
2 46507  97.8074 182.9216 0007259 176.0443 184.0848 15.16561291212517
WILDTRACKCUBE-SIMBA     
1 47941U 21022K   24225.17473965  .00033025  00000+0  13807-2 0  9992
2 47941  97.4523 121.4929 0012640 314.5035  45.5168 15.23457434186988
GRBALPHA                
1 47959U 21022AD  24225.17826122  .00047065  00000+0  16704-2 0  9996
2 47959  97.4520 123.7470 0010378 304.7086  55.3175 15.28850083185958
BCCSAT-1                
1 48041U 21022AK  24224.97843590  .00318719  00000+0  33169-2 0  9995
2 48041  97.4500 134.4877 0005529 162.8675 197.2771 15.63540114186609
BEESAT-8                
1 48085U 21022AP  24225.17112154  .00057770  00000+0  16022-2 0  9997
2 48085  97.4710 127.9674 0007607 286.7657  73.2752 15.36702549186465
LEDSAT                  
1 49069U 21073D   24225.18919259  .00041028  00000+0  15234-2 0  9991
2 49069  97.4335 296.0215 0019246  88.3043 272.0400 15.27273229164998
ROBUSTA-1F (MTCUBE 2)   
1 53109U 22080E   24224.81227384 -.00000003  00000+0  00000+0 0  9991
2 53109  70.1251 172.7820 0007788  75.9208 284.2317  6.42584298 48731
SITRO-AIS 5 (KATYS)     
1 57176U 23091L   24225.18947948  .00017387  00000+0  10791-2 0  9991
2 57176  97.6081 276.9209 0015668 290.8577  69.0974 15.09666512 61944
SITRO-AIS 6 (CHIRKIN)   
1 57192U 23091AC  24225.17248314  .00018717  00000+0  11595-2 0  9990
2 57192  97.6075 276.9320 0015670 290.5241  69.4306 15.09719123 61947
SITRO-AIS 8 (ANOKHIN)   
1 57193U 23091AD  24225.19347510  .00018649  00000+0  11427-2 0  9999
2 57193  97.6078 277.0490 0015139 291.5245  68.4370 15.10125362 61955
SITRO-AIS 7 (FARTUSHNIY)
1 57194U 23091AE  24225.17929243  .00017934  00000+0  11131-2 0  9995
2 57194  97.6073 276.9157 0015506 291.2014  68.7558 15.09659833 61941
